date:2024-08-30T03:18:30+00:00
validtle:1
satid:53553
launchyear:2022
epoch:24241.18896476
epochday:241
tleage:2
tleclassification:U
active:1
name:STARLINK-4501
meananomly:274.6210
meanmotion:15.0885
rightascension:0.0000
declination:0.0000
semimajoraxis:6917.8593782033
altitudeatperigee:539
altitudeatapogee:541
inclination:53.2172
eccentricity:0.0001661
argumentofperigree:85.4972
nickname:STARLINK-4501
idesg:22101AC 
cosparid:2022-101AC
altkm:540.52737738352
velkms:7.5933357416366
velkmh:27336
onumepoch:11199
onumnow:169005.24
otype:1
otypedesc:Low Earth Orbit (LEO)
status:1
timestamp:2024-08-28T04:32:07+00:00
nowjuliandate:2460552.6378507
nowepochdate:24243.1378472222
TLE:
STARLINK-4501
1 53553U 22101AC  24241.18896476  .00001560  00000+0  11608-3 0  9999
2 53553  53.2172  51.2007 0001661  85.4972 274.6210 15.08847549111991